{"type": "FeatureCollection", "features": [ {"type": "Feature", "properties": {"norad_id": 31916, "name": "FENGYUN 1C DEB", "group": "fengyun-1c-debris", "lat": -60.652715130567145, "lon": 79.1609717756779, "alt_km": 896.3138188882731, "timestamp": "2025-12-03T15:48:03.355255+00:00", "meta": {"OBJECT_NAME": "FENGYUN 1C DEB", "OBJECT_ID": "1999-025CLT", "EPOCH": "2025-12-02T23:19:56.831520", "MEAN_MOTION": 14.32359509, "ECCENTRICITY": 0.01476369, "INCLINATION": 99.3314, "RA_OF_ASC_NODE": 61.419, "ARG_OF_PERICENTER": 124.663, "MEAN_ANOMALY": 236.8568, "EPHEMERIS_TYPE": 0, "CLASSIFICATION_TYPE": "U", "NORAD_CAT_ID": 31916, "ELEMENT_SET_NO": 999, "REV_AT_EPOCH": 64387, "BSTAR": 0.0021995527, "MEAN_MOTION_DOT": 6.66e-05, "MEAN_MOTION_DDOT": 0}, "tle": {"line1": "1 31916U 99025CLT 25336.97218555  .00006660  00000+0  21996-2 0  9992", "line2": "2 31916  99.3314  61.4190 0147636 124.6630 236.8568 14.32359509643878"}}, "geometry": {"type": "Point", "coordinates": [79.1609717756779, -60.652715130567145]}}, {"type": "Feature", "properties": {"norad_id": 31917, "name": "FENGYUN 1C DEB", "group": "fengyun-1c-debris", "lat": 68.08273049053493, "lon": -50.75508524155495, "alt_km": 801.7277111310659, "timestamp": "2025-12-03T15:48:03.355265+00:00", "meta": {"OBJECT_NAME": "FENGYUN 1C DEB", "OBJECT_ID": "1999-025CLU", "EPOCH": "2025-12-02T06:07:47.080128", "MEAN_MOTION": 14.37534307, "ECCENTRICITY": 0.01898264, "INCLINATION": 98.3598, "RA_OF_ASC_NODE": 329.3164, "ARG_OF_PERICENTER": 324.9516, "MEAN_ANOMALY": 46.343, "EPHEMERIS_TYPE": 0, "CLASSIFICATION_TYPE": "U", "NORAD_CAT_ID": 31917, "ELEMENT_SET_NO": 999, "REV_AT_EPOCH": 96271, "BSTAR": 0.00097434798, "MEAN_MOTION_DOT": 3.546e-05, "MEAN_MOTION_DDOT": 0}, "tle": {"line1": "1 31917U 99025CLU 25336.25540602  .00003546  00000+0  97435-3 0  9997", "line2": "2 31917  98.3598 329.3164 0189826 324.9516  46.3430 14.37534307962719"}}, "geometry": {"type": "Point", "coordinates": [-50.75508524155495, 68.08273049053493]}}, {"type": "Feature", "properties": {"norad_id": 31919, "name": "FENGYUN 1C DEB", "group": "fengyun-1c-debris", "lat": -8.745895381909103, "lon": 120.82282070393767, "alt_km": 776.7800439899611, "timestamp": "2025-12-03T15:48:03.355274+00:00", "meta": {"OBJECT_NAME": "FENGYUN 1C DEB", "OBJECT_ID": "1999-025CLW", "EPOCH": "2025-12-02T15:13:05.255040", "MEAN_MOTION": 14.4568608, "ECCENTRICITY": 0.01019365, "INCLINATION": 99.1004, "RA_OF_ASC_NODE": 118.3119, "ARG_OF_PERICENTER": 236.7117, "MEAN_ANOMALY": 185.6873, "EPHEMERIS_TYPE": 0, "CLASSIFICATION_TYPE": "U", "NORAD_CAT_ID": 31919, "ELEMENT_SET_NO": 999, "REV_AT_EPOCH": 96935, "BSTAR": 0.00074875334, "MEAN_MOTION_DOT": 2.771e-05, "MEAN_MOTION_DDOT": 0}, "tle": {"line1": "1 31919U 99025CLW 25336.63408860  .00002771  00000+0  74875-3 0  9992", "line2": "2 31919  99.1004 118.3119 0101936 236.7117 185.6873 14.45686080969351"}}, "geometry": {"type": "Point", "coordinates": [120.82282070393767, -8.745895381909103]}}, {"type": "Feature", "properties": {"norad_id": 31921, "name": "FENGYUN 1C DEB", "group": "fengyun-1c-debris", "lat": 11.618228491547598, "lon": 52.15314938201955, "alt_km": 1056.6832932098087, "timestamp": "2025-12-03T15:48:03.355283+00:00", "meta": {"OBJECT_NAME": "FENGYUN 1C DEB", "OBJECT_ID": "1999-025CLY", "EPOCH": "2025-11-28T10:59:40.701408", "MEAN_MOTION": 13.75221873, "ECCENTRICITY": 0.02030283, "INCLINATION": 99.3395, "RA_OF_ASC_NODE": 225.1205, "ARG_OF_PERICENTER": 302.7278, "MEAN_ANOMALY": 55.4443, "EPHEMERIS_TYPE": 0, "CLASSIFICATION_TYPE": "U", "NORAD_CAT_ID": 31921, "ELEMENT_SET_NO": 999, "REV_AT_EPOCH": 92110, "BSTAR": 0.0013372517, "MEAN_MOTION_DOT": 1.443e-05, "MEAN_MOTION_DDOT": 0}, "tle": {"line1": "1 31921U 99025CLY 25332.45810997  .00001443  00000+0  13373-2 0  9999", "line2": "2 31921  99.3395 225.1205 0203028 302.7278  55.4443 13.75221873921104"}}, "geometry": {"type": "Point", "coordinates": [52.15314938201955, 11.618228491547598]}}, {"type": "Feature", "properties": {"norad_id": 31922, "name": "FENGYUN 1C DEB", "group": "fengyun-1c-debris", "lat": 33.47303987204706, "lon": -36.26596897255979, "alt_km": 825.43451077588, "timestamp": "2025-12-03T15:48:03.355291+00:00", "meta": {"OBJECT_NAME": "FENGYUN 1C DEB", "OBJECT_ID": "1999-025CLZ", "EPOCH": "2025-12-03T05:19:20.807040", "MEAN_MOTION": 13.86546291, "ECCENTRICITY": 0.01614353, "INCLINATION": 98.8049, "RA_OF_ASC_NODE": 329.2051, "ARG_OF_PERICENTER": 52.2508, "MEAN_ANOMALY": 324.1529, "EPHEMERIS_TYPE": 0, "CLASSIFICATION_TYPE": "U", "NORAD_CAT_ID": 31922, "ELEMENT_SET_NO": 999, "REV_AT_EPOCH": 92885, "BSTAR": 0.0017403312, "MEAN_MOTION_DOT": 2.2e-05, "MEAN_MOTION_DDOT": 0}, "tle": {"line1": "1 31922U 99025CLZ 25337.22176860  .00002200  00000+0  17403-2 0  9994", "line2": "2 31922  98.8049 329.2051 0161435  52.2508 324.1529 13.86546291928854"}}, "geometry": {"type": "Point", "coordinates": [-36.26596897255979, 33.47303987204706]}}, {"type": "Feature", "properties": {"norad_id": 31923, "name": "FENGYUN 1C DEB", "group": "fengyun-1c-debris", "lat": 3.569536948953565, "lon": -106.76424853958203, "alt_km": 1250.82535386174, "timestamp": "2025-12-03T15:48:03.355300+00:00", "meta": {"OBJECT_NAME": "FENGYUN 1C DEB", "OBJECT_ID": "1999-025CMA", "EPOCH": "2025-11-27T04:43:30.487296", "MEAN_MOTION": 13.54838652, "ECCENTRICITY": 0.0299441, "INCLINATION": 98.4405, "RA_OF_ASC_NODE": 67.1712, "ARG_OF_PERICENTER": 344.5928, "MEAN_ANOMALY": 14.6245, "EPHEMERIS_TYPE": 0, "CLASSIFICATION_TYPE": "U", "NORAD_CAT_ID": 31923, "ELEMENT_SET_NO": 999, "REV_AT_EPOCH": 63424, "BSTAR": 0.0012454, "MEAN_MOTION_DOT": 1.103e-05, "MEAN_MOTION_DDOT": 0}, "tle": {"line1": "1 31923U 99025CMA 25331.19688064  .00001103  00000+0  12454-2 0  9991", "line2": "2 31923  98.4405  67.1712 0299441 344.5928  14.6245 13.54838652634244"}}, "geometry": {"type": "Point", "coordinates": [-106.76424853958203, 3.569536948953565]}}, {"type": "Feature", "properties": {"norad_id": 31924, "name": "FENGYUN 1C DEB", "group": "fengyun-1c-debris", "lat": 26.530198739377894, "lon": -39.54178012590844, "alt_km": 847.3539414951492, "timestamp": "2025-12-03T15:48:03.355309+00:00", "meta": {"OBJECT_NAME": "FENGYUN 1C DEB", "OBJECT_ID": "1999-025CMB", "EPOCH": "2025-12-02T16:11:07.216512", "MEAN_MOTION": 13.63863085, "ECCENTRICITY": 0.02736997, "INCLINATION": 98.4029, "RA_OF_ASC_NODE": 135.3746, "ARG_OF_PERICENTER": 123.6218, "MEAN_ANOMALY": 239.1368, "EPHEMERIS_TYPE": 0, "CLASSIFICATION_TYPE": "U", "NORAD_CAT_ID": 31924, "ELEMENT_SET_NO": 999, "REV_AT_EPOCH": 91330, "BSTAR": 0.001814892, "MEAN_MOTION_DOT": 1.824e-05, "MEAN_MOTION_DDOT": 0}, "tle": {"line1": "1 31924U 99025CMB 25336.67438908  .00001824  00000+0  18149-2 0  9997", "line2": "2 31924  98.4029 135.3746 0273699 123.6218 239.1368 13.63863085913302"}}, "geometry": {"type": "Point", "coordinates": [-39.54178012590844, 26.530198739377894]}}, {"type": "Feature", "properties": {"norad_id": 31926, "name": "FENGYUN 1C DEB", "group": "fengyun-1c-debris", "lat": -21.31082828194135, "lon": -110.90583249163562, "alt_km": 789.2905689432737, "timestamp": "2025-12-03T15:48:03.355318+00:00", "meta": {"OBJECT_NAME": "FENGYUN 1C DEB", "OBJECT_ID": "1999-025CMD", "EPOCH": "2025-12-02T05:17:05.814816", "MEAN_MOTION": 14.30511949, "ECCENTRICITY": 0.0037969, "INCLINATION": 98.9584, "RA_OF_ASC_NODE": 71.1415, "ARG_OF_PERICENTER": 283.3692, "MEAN_ANOMALY": 76.3258, "EPHEMERIS_TYPE": 0, "CLASSIFICATION_TYPE": "U", "NORAD_CAT_ID": 31926, "ELEMENT_SET_NO": 999, "REV_AT_EPOCH": 95077, "BSTAR": 0.002944, "MEAN_MOTION_DOT": 7.692e-05, "MEAN_MOTION_DDOT": 0}, "tle": {"line1": "1 31926U 99025CMD 25336.22020619  .00007692  00000+0  29440-2 0  9991", "line2": "2 31926  98.9584  71.1415 0037969 283.3692  76.3258 14.30511949950778"}}, "geometry": {"type": "Point", "coordinates": [-110.90583249163562, -21.31082828194135]}}, {"type": "Feature", "properties": {"norad_id": 31929, "name": "FENGYUN 1C DEB", "group": "fengyun-1c-debris", "lat": 20.136939492685187, "lon": -69.90462286356423, "alt_km": 763.7039340551937, "timestamp": "2025-12-03T15:48:03.355327+00:00", "meta": {"OBJECT_NAME": "FENGYUN 1C DEB", "OBJECT_ID": "1999-025CME", "EPOCH": "2025-11-30T15:06:17.273376", "MEAN_MOTION": 14.34883129, "ECCENTRICITY": 0.0074571, "INCLINATION": 98.7907, "RA_OF_ASC_NODE": 103.7601, "ARG_OF_PERICENTER": 90.6854, "MEAN_ANOMALY": 270.2876, "EPHEMERIS_TYPE": 0, "CLASSIFICATION_TYPE": "U", "NORAD_CAT_ID": 31929, "ELEMENT_SET_NO": 999, "REV_AT_EPOCH": 70472, "BSTAR": 0.00051275, "MEAN_MOTION_DOT": 1.458e-05, "MEAN_MOTION_DDOT": 0}, "tle": {"line1": "1 31929U 99025CME 25334.62936659  .00001458  00000+0  51275-3 0  9992", "line2": "2 31929  98.7907 103.7601 0074571  90.6854 270.2876 14.34883129704725"}}, "geometry": {"type": "Point", "coordinates": [-69.90462286356423, 20.136939492685187]}}, {"type": "Feature", "properties": {"norad_id": 31931, "name": "FENGYUN 1C DEB", "group": "fengyun-1c-debris", "lat": 40.29751890402582, "lon": -76.54882334791971, "alt_km": 1179.4795734209083, "timestamp": "2025-12-03T15:48:03.355336+00:00", "meta": {"OBJECT_NAME": "FENGYUN 1C DEB", "OBJECT_ID": "1999-025CMG", "EPOCH": "2025-12-02T14:33:38.327904", "MEAN_MOTION": 13.42584114, "ECCENTRICITY": 0.04236639, "INCLINATION": 97.8124, "RA_OF_ASC_NODE": 289.3184, "ARG_OF_PERICENTER": 296.0415, "MEAN_ANOMALY": 59.7684, "EPHEMERIS_TYPE": 0, "CLASSIFICATION_TYPE": "U", "NORAD_CAT_ID": 31931, "ELEMENT_SET_NO": 999, "REV_AT_EPOCH": 65086, "BSTAR": 0.0015604157, "MEAN_MOTION_DOT": 1.474e-05, "MEAN_MOTION_DDOT": 0}, "tle": {"line1": "1 31931U 99025CMG 25336.60669361  .00001474  00000+0  15604-2 0  9991", "line2": "2 31931  97.8124 289.3184 0423663 296.0415  59.7684 13.42584114650863"}}, "geometry": {"type": "Point", "coordinates": [-76.54882334791971, 40.29751890402582]}}]}